{
  "norad_id": 33055,
  "name": "SKYNET 5C",
  "history": [
    {
      "epoch": "2026-05-04T16:33:50.141088Z",
      "apogee_km": 35803.33973281953,
      "perigee_km": 35769.338299360155,
      "latitude_deg": 1.003754309585169,
      "longitude_deg": -17.77937775274594,
      "height_km": 35773.39143782148,
      "semi_major_axis_km": 42164.476016089844,
      "eccentricity": 0.0004032,
      "inclination_deg": 3.6784,
      "raan_deg": 77.538,
      "arg_perigee_deg": 331.8881,
      "mean_anomaly_deg": 43.8321,
      "mean_motion_rev_day": 1.00272698
    },
    {
      "epoch": "2026-05-05T18:13:58.727136Z",
      "apogee_km": 35803.355969335695,
      "perigee_km": 35769.379811295075,
      "latitude_deg": 2.45430045075812,
      "longitude_deg": -17.792270894611466,
      "height_km": 35779.3699847761,
      "semi_major_axis_km": 42164.50489031539,
      "eccentricity": 0.0004029,
      "inclination_deg": 3.6809,
      "raan_deg": 77.5256,
      "arg_perigee_deg": 333.2021,
      "mean_anomaly_deg": 68.6239,
      "mean_motion_rev_day": 1.00272595
    }
  ]
}